$$SOE
2461302.500000000, A.D. 2026-Sep-19 00:00:00.0000, -4.301121380466795E+08, -2.508097629431846E+08, 2.224386774725340E+07,
2461309.500000000, A.D. 2026-Sep-26 00:00:00.0000, -4.238940499846734E+08, -2.581363696749687E+08, 2.220234289748245E+07,
2461316.500000000, A.D. 2026-Oct-03 00:00:00.0000, -4.175081271119525E+08, -2.653607685557818E+08, 2.215202735543396E+07,
2461323.500000000, A.D. 2026-Oct-10 00:00:00.0000, -4.109552852751808E+08, -2.724790766032317E+08, 2.209285549776833E+07,
2461330.500000000, A.D. 2026-Oct-17 00:00:00.0000, -4.042365209596655E+08, -2.794873742849157E+08, 2.202476372176348E+07,
2461337.500000000, A.D. 2026-Oct-24 00:00:00.0000, -3.973529142257349E+08, -2.863817062654156E+08, 2.194769056732272E+07,
2461344.500000000, A.D. 2026-Oct-31 00:00:00.0000, -3.903056316328254E+08, -2.931580824317501E+08, 2.186157682271440E+07,
2461351.500000000, A.D. 2026-Nov-07 00:00:00.0000, -3.830959288108663E+08, -2.998124791305287E+08, 2.176636558931711E+07,
2461358.500000000, A.D. 2026-Nov-14 00:00:00.0000, -3.757251524762145E+08, -3.063408397368820E+08, 2.166200235980786E+07,
2461365.500000000, A.D. 2026-Nov-21 00:00:00.0000, -3.681947437011455E+08, -3.127390738809653E+08, 2.154843533199768E+07,
2461372.500000000, A.D. 2026-Nov-28 00:00:00.0000, -3.605062434317634E+08, -3.190030583487279E+08, 2.142561580430380E+07,
2461379.500000000, A.D. 2026-Dec-05 00:00:00.0000, -3.526612966322502E+08, -3.251286403229265E+08, 2.129349826764798E+07,
2461386.500000000, A.D. 2026-Dec-12 00:00:00.0000, -3.446616548877828E+08, -3.311116398624462E+08, 2.115204043340237E+07,
2461393.500000000, A.D. 2026-Dec-19 00:00:00.0000, -3.365091793490570E+08, -3.369478516218395E+08, 2.100120337139751E+07,
2461400.500000000, A.D. 2026-Dec-26 00:00:00.0000, -3.282058441551896E+08, -3.426330466879289E+08, 2.084095170032783E+07,
2461407.500000000, A.D. 2027-Jan-02 00:00:00.0000, -3.197537400531375E+08, -3.481629747342138E+08, 2.067125378976218E+07,
2461414.500000000, A.D. 2027-Jan-09 00:00:00.0000, -3.111550780907906E+08, -3.535333664834701E+08, 2.049208196477434E+07,
2461421.500000000, A.D. 2027-Jan-16 00:00:00.0000, -3.024121933425715E+08, -3.587399364804547E+08, 2.030341271076715E+07,
2461428.500000000, A.D. 2027-Jan-23 00:00:00.0000, -2.935275486152955E+08, -3.637783862249770E+08, 2.010522687107587E+07,
2461435.500000000, A.D. 2027-Jan-30 00:00:00.0000, -2.845037379395562E+08, -3.686444077237243E+08, 1.989750981618437E+07,
2461442.500000000, A.D. 2027-Feb-06 00:00:00.0000, -2.753434894140589E+08, -3.733336871313343E+08, 1.968025157325847E+07,
2461449.500000000, A.D. 2027-Feb-13 00:00:00.0000, -2.660496678542897E+08, -3.778419072710425E+08, 1.945344705767746E+07,
2461456.500000000, A.D. 2027-Feb-20 00:00:00.0000, -2.566252795987130E+08, -3.821647498350887E+08, 1.921709655834125E+07,
2461463.500000000, A.D. 2027-Feb-27 00:00:00.0000, -2.470734780642065E+08, -3.862979004877807E+08, 1.897120608558299E+07,
2461470.500000000, A.D. 2027-Mar-06 00:00:00.0000, -2.373975670192335E+08, -3.902370549577732E+08, 1.871578746152875E+07,
2461477.500000000, A.D. 2027-Mar-13 00:00:00.0000, -2.276010031594943E+08, -3.939779240778570E+08, 1.845085846663541E+07,
2461484.500000000, A.D. 2027-Mar-20 00:00:00.0000, -2.176873990972661E+08, -3.975162386141357E+08, 1.817644307707402E+07,
2461491.500000000, A.D. 2027-Mar-27 00:00:00.0000, -2.076605265425766E+08, -4.008477544415837E+08, 1.789257172878277E+07,
2461498.500000000, A.D. 2027-Apr-03 00:00:00.0000, -1.975243194529835E+08, -4.039682581226064E+08, 1.759928158493526E+07,
2461505.500000000, A.D. 2027-Apr-10 00:00:00.0000, -1.872828770703976E+08, -4.068735728742767E+08, 1.729661680247109E+07,
2461512.500000000, A.D. 2027-Apr-17 00:00:00.0000, -1.769404668021672E+08, -4.095595649458733E+08, 1.698462879395896E+07,
2461519.500000000, A.D. 2027-Apr-24 00:00:00.0000, -1.665015268452581E+08, -4.120221504740686E+08, 1.666337647187749E+07,
2461526.500000000, A.D. 2027-May-01 00:00:00.0000, -1.559706682301254E+08, -4.142573027910951E+08, 1.633292644940922E+07,
2461533.500000000, A.D. 2027-May-08 00:00:00.0000, -1.453526759513679E+08, -4.162610594388103E+08, 1.599335322988194E+07,
2461540.500000000, A.D. 2027-May-15 00:00:00.0000, -1.346525106548863E+08, -4.180295279343284E+08, 1.564473959905806E+07,
2461547.500000000, A.D. 2027-May-22 00:00:00.0000, -1.238753124162759E+08, -4.195588928756933E+08, 1.528717715066302E+07,
2461554.500000000, A.D. 2027-May-29 00:00:00.0000, -1.130264032241236E+08, -4.208454258519896E+08, 1.492076651607519E+07,
2461561.500000000, A.D. 2027-Jun-05 00:00:00.0000, -1.021112872528650E+08, -4.218854950209380E+08, 1.454561747179052E+07,
2461568.500000000, A.D. 2027-Jun-12 00:00:00.0000, -9.113565090151055E+07, -4.226755739135352E+08, 1.416184914284903E+07,
2461575.500000000, A.D. 2027-Jun-19 00:00:00.0000, -8.010536289669950E+07, -4.232122503886929E+08, 1.376959025481042E+07,
2461582.500000000, A.D. 2027-Jun-26 00:00:00.0000, -6.902647414693336E+07, -4.234922359843193E+08, 1.336897938582498E+07,
2461589.500000000, A.D. 2027-Jul-03 00:00:00.0000, -5.790521718121178E+07, -4.235123756391652E+08, 1.296016520579943E+07,
2461596.500000000, A.D. 2027-Jul-10 00:00:00.0000, -4.674800510017317E+07, -4.232696577572346E+08, 1.254330669840223E+07,
2461603.500000000, A.D. 2027-Jul-17 00:00:00.0000, -3.556142996886805E+07, -4.227612246320612E+08, 1.211857335788438E+07,
2461610.500000000, A.D. 2027-Jul-24 00:00:00.0000, -2.435226046147615E+07, -4.219843832691272E+08, 1.168614533976153E+07,
2461617.500000000, A.D. 2027-Jul-31 00:00:00.0000, -1.312743831462345E+07, -4.209366163424825E+08, 1.124621354532352E+07,
2461624.500000000, A.D. 2027-Aug-07 00:00:00.0000, -1.894073759396327E+06, -4.196155921009162E+08, 1.079897975078225E+07,
2461631.500000000, A.D. 2027-Aug-14 00:00:00.0000, 9.340557796247227E+06, -4.180191734388560E+08, 1.034465696940592E+07,
2461638.500000000, A.D. 2027-Aug-21 00:00:00.0000, 2.056901848164401E+07, -4.161454294533942E+08, 9.883469712708771E+06,
2461645.500000000, A.D. 2027-Aug-28 00:00:00.0000, 3.178371353249094E+07, -4.139926482393161E+08, 9.415653932078540E+06,
2461652.500000000, A.D. 2027-Sep-04 00:00:00.0000, 4.297689855764887E+07, -4.115593483723107E+08, 8.941456951518625E+06,
2461659.500000000, A.D. 2027-Sep-11 00:00:00.0000, 5.414068712888178E+07, -4.088442896897530E+08, 8.461137463220388E+06,
2461666.500000000, A.D. 2027-Sep-18 00:00:00.0000, 6.526705884377816E+07, -4.058464839631821E+08, 7.974965518347651E+06,
2461673.500000000, A.D. 2027-Sep-25 00:00:00.0000, 7.634786810376467E+07, -4.025652054804121E+08, 7.483222483436912E+06,
2461680.500000000, A.D. 2027-Oct-02 00:00:00.0000, 8.737485369091588E+07, -3.990000014464803E+08, 6.986200955528259E+06,
2461687.500000000, A.D. 2027-Oct-09 00:00:00.0000, 9.833964917031920E+07, -3.951507021417245E+08, 6.484204631398261E+06,
2461694.500000000, A.D. 2027-Oct-16 00:00:00.0000, 1.092337941808405E+08, -3.910174308240575E+08, 5.977548118655294E+06,
2461701.500000000, A.D. 2027-Oct-23 00:00:00.0000, 1.200487468680344E+08, -3.866006133129042E+08, 5.466556662851900E+06,
2461708.500000000, A.D. 2027-Oct-30 00:00:00.0000, 1.307758978205374E+08, -3.819009865758074E+08, 4.951565804970145E+06,
2461715.500000000, A.D. 2027-Nov-06 00:00:00.0000, 1.414065843249060E+08, -3.769196051194329E+08, 4.432921167231083E+06,
2461722.500000000, A.D. 2027-Nov-13 00:00:00.0000, 1.519321029235682E+08, -3.716578471880243E+08, 3.910978378685847E+06,
2461729.500000000, A.D. 2027-Nov-20 00:00:00.0000, 1.623437231412910E+08, -3.661174228797455E+08, 3.386102694883004E+06,
2461736.500000000, A.D. 2027-Nov-27 00:00:00.0000, 1.726327039559455E+08, -3.603003811425453E+08, 2.858668404967159E+06,
2461743.500000000, A.D. 2027-Dec-04 00:00:00.0000, 1.827903109425194E+08, -3.542091146647792E+08, 2.329058286371484E+06,
2461750.500000000, A.D. 2027-Dec-11 00:00:00.0000, 1.928078334865586E+08, -3.478463635580902E+08, 1.797663079162300E+06,
2461757.500000000, A.D. 2027-Dec-18 00:00:00.0000, 2.026766022819582E+08, -3.412152181115036E+08, 1.264880928038612E+06,
2461764.500000000, A.D. 2027-Dec-25 00:00:00.0000, 2.123880071965742E+08, -3.343191205650127E+08, 7.311167793459445E+05,
2461771.500000000, A.D. 2028-Jan-01 00:00:00.0000, 2.219335154697329E+08, -3.271618658389602E+08, 1.967817323189825E+05,
$$EOE